CCSDS_OMM_VERS = 2.0
CREATION_DATE  = 
ORIGINATOR     = 

OBJECT_NAME    = TWILIGHT H
OBJECT_ID      = 2026-004H
CENTER_NAME    = EARTH
REF_FRAME      = TEME
TIME_SYSTEM    = UTC
MEAN_ELEMENT_THEORY = SGP/SGP4

EPOCH          = 2026-01-27T13:24:27.545760
MEAN_MOTION    = 14.87332195
ECCENTRICITY   = .00055465
INCLINATION    = 97.7953
RA_OF_ASC_NODE = 28.4442
ARG_OF_PERICENTER = 243.0547
MEAN_ANOMALY   = 117.0103

EPHEMERIS_TYPE = 0
CLASSIFICATION_TYPE = U
NORAD_CAT_ID   = 67370
ELEMENT_SET_NO = 999
REV_AT_EPOCH   = 238
BSTAR          = .83385427E-3
MEAN_MOTION_DOT = .7481E-4
MEAN_MOTION_DDOT = 0

CCSDS_OMM_VERS = 2.0
CREATION_DATE  = 
ORIGINATOR     = 

OBJECT_NAME    = TWILIGHT J
OBJECT_ID      = 2026-004J
CENTER_NAME    = EARTH
REF_FRAME      = TEME
TIME_SYSTEM    = UTC
MEAN_ELEMENT_THEORY = SGP/SGP4

EPOCH          = 2026-01-27T13:19:19.235136
MEAN_MOTION    = 14.87715897
ECCENTRICITY   = .00047099
INCLINATION    = 97.7995
RA_OF_ASC_NODE = 28.4515
ARG_OF_PERICENTER = 224.4873
MEAN_ANOMALY   = 135.5966

EPHEMERIS_TYPE = 0
CLASSIFICATION_TYPE = U
NORAD_CAT_ID   = 67371
ELEMENT_SET_NO = 999
REV_AT_EPOCH   = 238
BSTAR          = .11099837E-2
MEAN_MOTION_DOT = .10074E-3
MEAN_MOTION_DDOT = 0

CCSDS_OMM_VERS = 2.0
CREATION_DATE  = 
ORIGINATOR     = 

OBJECT_NAME    = TWILIGHT K
OBJECT_ID      = 2026-004K
CENTER_NAME    = EARTH
REF_FRAME      = TEME
TIME_SYSTEM    = UTC
MEAN_ELEMENT_THEORY = SGP/SGP4

EPOCH          = 2026-01-27T11:37:36.378048
MEAN_MOTION    = 14.87945744
ECCENTRICITY   = .00030901
INCLINATION    = 97.7971
RA_OF_ASC_NODE = 28.3874
ARG_OF_PERICENTER = 217.6824
MEAN_ANOMALY   = 142.4176

EPHEMERIS_TYPE = 0
CLASSIFICATION_TYPE = U
NORAD_CAT_ID   = 67372
ELEMENT_SET_NO = 999
REV_AT_EPOCH   = 237
BSTAR          = .49313828E-3
MEAN_MOTION_DOT = .4467E-4
MEAN_MOTION_DDOT = 0

CCSDS_OMM_VERS = 2.0
CREATION_DATE  = 
ORIGINATOR     = 

OBJECT_NAME    = TWILIGHT L
OBJECT_ID      = 2026-004L
CENTER_NAME    = EARTH
REF_FRAME      = TEME
TIME_SYSTEM    = UTC
MEAN_ELEMENT_THEORY = SGP/SGP4

EPOCH          = 2026-01-27T14:57:21.507840
MEAN_MOTION    = 14.87551330
ECCENTRICITY   = .00046847
INCLINATION    = 97.7985
RA_OF_ASC_NODE = 28.5158
ARG_OF_PERICENTER = 230.4143
MEAN_ANOMALY   = 129.6660

EPHEMERIS_TYPE = 0
CLASSIFICATION_TYPE = U
NORAD_CAT_ID   = 67373
ELEMENT_SET_NO = 999
REV_AT_EPOCH   = 239
BSTAR          = .44219578E-3
MEAN_MOTION_DOT = .3961E-4
MEAN_MOTION_DDOT = 0

CCSDS_OMM_VERS = 2.0
CREATION_DATE  = 
ORIGINATOR     = 

OBJECT_NAME    = TWILIGHT M
OBJECT_ID      = 2026-004M
CENTER_NAME    = EARTH
REF_FRAME      = TEME
TIME_SYSTEM    = UTC
MEAN_ELEMENT_THEORY = SGP/SGP4

EPOCH          = 2026-01-27T13:15:32.115456
MEAN_MOTION    = 14.87897172
ECCENTRICITY   = .00033612
INCLINATION    = 97.7970
RA_OF_ASC_NODE = 28.4513
ARG_OF_PERICENTER = 218.4283
MEAN_ANOMALY   = 141.6695

EPHEMERIS_TYPE = 0
CLASSIFICATION_TYPE = U
NORAD_CAT_ID   = 67374
ELEMENT_SET_NO = 999
REV_AT_EPOCH   = 238
BSTAR          = .50036901E-3
MEAN_MOTION_DOT = .4528E-4
MEAN_MOTION_DDOT = 0

CCSDS_OMM_VERS = 2.0
CREATION_DATE  = 
ORIGINATOR     = 

OBJECT_NAME    = TWILIGHT N
OBJECT_ID      = 2026-004N
CENTER_NAME    = EARTH
REF_FRAME      = TEME
TIME_SYSTEM    = UTC
MEAN_ELEMENT_THEORY = SGP/SGP4

EPOCH          = 2026-01-27T13:15:07.331616
MEAN_MOTION    = 14.87924679
ECCENTRICITY   = .00039448
INCLINATION    = 97.8007
RA_OF_ASC_NODE = 28.4574
ARG_OF_PERICENTER = 212.6570
MEAN_ANOMALY   = 147.4403

EPHEMERIS_TYPE = 0
CLASSIFICATION_TYPE = U
NORAD_CAT_ID   = 67375
ELEMENT_SET_NO = 999
REV_AT_EPOCH   = 238
BSTAR          = .54475441E-3
MEAN_MOTION_DOT = .4938E-4
MEAN_MOTION_DDOT = 0

CCSDS_OMM_VERS = 2.0
CREATION_DATE  = 
ORIGINATOR     = 

OBJECT_NAME    = TWILIGHT P
OBJECT_ID      = 2026-004P
CENTER_NAME    = EARTH
REF_FRAME      = TEME
TIME_SYSTEM    = UTC
MEAN_ELEMENT_THEORY = SGP/SGP4

EPOCH          = 2026-01-27T13:17:21.727680
MEAN_MOTION    = 14.87776817
ECCENTRICITY   = .00042872
INCLINATION    = 97.8003
RA_OF_ASC_NODE = 28.4545
ARG_OF_PERICENTER = 219.6184
MEAN_ANOMALY   = 140.4720

EPHEMERIS_TYPE = 0
CLASSIFICATION_TYPE = U
NORAD_CAT_ID   = 67376
ELEMENT_SET_NO = 999
REV_AT_EPOCH   = 238
BSTAR          = .54089065E-3
MEAN_MOTION_DOT = .4885E-4
MEAN_MOTION_DDOT = 0

CCSDS_OMM_VERS = 2.0
CREATION_DATE  = 
ORIGINATOR     = 

OBJECT_NAME    = TWILIGHT Q
OBJECT_ID      = 2026-004Q
CENTER_NAME    = EARTH
REF_FRAME      = TEME
TIME_SYSTEM    = UTC
MEAN_ELEMENT_THEORY = SGP/SGP4

EPOCH          = 2026-01-27T13:14:54.640320
MEAN_MOTION    = 14.87943015
ECCENTRICITY   = .00039114
INCLINATION    = 97.8007
RA_OF_ASC_NODE = 28.4573
ARG_OF_PERICENTER = 210.8676
MEAN_ANOMALY   = 149.2311

EPHEMERIS_TYPE = 0
CLASSIFICATION_TYPE = U
NORAD_CAT_ID   = 67377
ELEMENT_SET_NO = 999
REV_AT_EPOCH   = 237
BSTAR          = .64511831E-3
MEAN_MOTION_DOT = .5861E-4
MEAN_MOTION_DDOT = 0

CCSDS_OMM_VERS = 2.0
CREATION_DATE  = 
ORIGINATOR     = 

OBJECT_NAME    = TWILIGHT R
OBJECT_ID      = 2026-004R
CENTER_NAME    = EARTH
REF_FRAME      = TEME
TIME_SYSTEM    = UTC
MEAN_ELEMENT_THEORY = SGP/SGP4

EPOCH          = 2026-01-27T13:18:31.043808
MEAN_MOTION    = 14.87699850
ECCENTRICITY   = .00037054
INCLINATION    = 97.7977
RA_OF_ASC_NODE = 28.4497
ARG_OF_PERICENTER = 230.2496
MEAN_ANOMALY   = 129.8394

EPHEMERIS_TYPE = 0
CLASSIFICATION_TYPE = U
NORAD_CAT_ID   = 67378
ELEMENT_SET_NO = 999
REV_AT_EPOCH   = 237
BSTAR          = .54641265E-3
MEAN_MOTION_DOT = .4926E-4
MEAN_MOTION_DDOT = 0

CCSDS_OMM_VERS = 2.0
CREATION_DATE  = 
ORIGINATOR     = 

OBJECT_NAME    = TWILIGHT S
OBJECT_ID      = 2026-004S
CENTER_NAME    = EARTH
REF_FRAME      = TEME
TIME_SYSTEM    = UTC
MEAN_ELEMENT_THEORY = SGP/SGP4

EPOCH          = 2026-01-27T13:18:19.861920
MEAN_MOTION    = 14.87710446
ECCENTRICITY   = .00042167
INCLINATION    = 97.7982
RA_OF_ASC_NODE = 28.4514
ARG_OF_PERICENTER = 226.0779
MEAN_ANOMALY   = 134.0090

EPHEMERIS_TYPE = 0
CLASSIFICATION_TYPE = U
NORAD_CAT_ID   = 67379
ELEMENT_SET_NO = 999
REV_AT_EPOCH   = 237
BSTAR          = .53004003E-3
MEAN_MOTION_DOT = .4778E-4
MEAN_MOTION_DDOT = 0

CCSDS_OMM_VERS = 2.0
CREATION_DATE  = 
ORIGINATOR     = 

OBJECT_NAME    = TWILIGHT T
OBJECT_ID      = 2026-004T
CENTER_NAME    = EARTH
REF_FRAME      = TEME
TIME_SYSTEM    = UTC
MEAN_ELEMENT_THEORY = SGP/SGP4

EPOCH          = 2026-01-27T13:16:58.367712
MEAN_MOTION    = 14.87807433
ECCENTRICITY   = .00037142
INCLINATION    = 97.7974
RA_OF_ASC_NODE = 28.4515
ARG_OF_PERICENTER = 224.9918
MEAN_ANOMALY   = 135.0998

EPHEMERIS_TYPE = 0
CLASSIFICATION_TYPE = U
NORAD_CAT_ID   = 67380
ELEMENT_SET_NO = 999
REV_AT_EPOCH   = 237
BSTAR          = .51996203E-3
MEAN_MOTION_DOT = .4697E-4
MEAN_MOTION_DDOT = 0

CCSDS_OMM_VERS = 2.0
CREATION_DATE  = 
ORIGINATOR     = 

OBJECT_NAME    = TWILIGHT U
OBJECT_ID      = 2026-004U
CENTER_NAME    = EARTH
REF_FRAME      = TEME
TIME_SYSTEM    = UTC
MEAN_ELEMENT_THEORY = SGP/SGP4

EPOCH          = 2026-01-27T14:51:42.501024
MEAN_MOTION    = 14.87946098
ECCENTRICITY   = .00040621
INCLINATION    = 97.8011
RA_OF_ASC_NODE = 28.5254
ARG_OF_PERICENTER = 212.4172
MEAN_ANOMALY   = 147.6795

EPHEMERIS_TYPE = 0
CLASSIFICATION_TYPE = U
NORAD_CAT_ID   = 67381
ELEMENT_SET_NO = 999
REV_AT_EPOCH   = 238
BSTAR          = .63103621E-3
MEAN_MOTION_DOT = .5733E-4
MEAN_MOTION_DDOT = 0

