TWILIGHT H              
1 67370U 26004H   26027.55865215  .00007481  00000+0  83385-3 0  9998
2 67370  97.7953  28.4442 0005546 243.0547 117.0103 14.87332195  2383
TWILIGHT J              
1 67371U 26004J   26027.55508374  .00010074  00000+0  11100-2 0  9996
2 67371  97.7995  28.4515 0004709 224.4873 135.5966 14.87715897  2382
TWILIGHT K              
1 67372U 26004K   26027.48444882  .00004467  00000+0  49314-3 0  9990
2 67372  97.7971  28.3874 0003090 217.6824 142.4176 14.87945744  2371
TWILIGHT L              
1 67373U 26004L   26027.62316560  .00003961  00000+0  44220-3 0  9997
2 67373  97.7985  28.5158 0004684 230.4143 129.6660 14.87551330  2392
TWILIGHT M              
1 67374U 26004M   26027.55245504  .00004528  00000+0  50037-3 0  9992
2 67374  97.7970  28.4513 0003361 218.4283 141.6695 14.87897172  2381
TWILIGHT N              
1 67375U 26004N   26027.55216819  .00004938  00000+0  54475-3 0  9995
2 67375  97.8007  28.4574 0003944 212.6570 147.4403 14.87924679  2387
TWILIGHT P              
1 67376U 26004P   26027.55372370  .00004885  00000+0  54089-3 0  9993
2 67376  97.8003  28.4545 0004287 219.6184 140.4720 14.87776817  2385
TWILIGHT Q              
1 67377U 26004Q   26027.55202130  .00005861  00000+0  64512-3 0  9997
2 67377  97.8007  28.4573 0003911 210.8676 149.2311 14.87943015  2371
TWILIGHT R              
1 67378U 26004R   26027.55452597  .00004926  00000+0  54641-3 0  9995
2 67378  97.7977  28.4497 0003705 230.2496 129.8394 14.87699850  2379
TWILIGHT S              
1 67379U 26004S   26027.55439655  .00004778  00000+0  53004-3 0  9993
2 67379  97.7982  28.4514 0004216 226.0779 134.0090 14.87710446  2377
TWILIGHT T              
1 67380U 26004T   26027.55345333  .00004697  00000+0  51996-3 0  9992
2 67380  97.7974  28.4515 0003714 224.9918 135.0998 14.87807433  2376
TWILIGHT U              
1 67381U 26004U   26027.61924191  .00005733  00000+0  63104-3 0  9991
2 67381  97.8011  28.5254 0004062 212.4172 147.6795 14.87946098  2388
